STARLINK-2740           
1 48690U 21044BE  23238.42888163  .00000059  00000+0  22881-4 0  9994
2 48690  53.0534 279.7670 0001183  98.2267 261.8856 15.06383681125559
STARLINK-2750           
1 48691U 21044BF  23238.40169195 -.00001105  00000+0 -55329-4 0  9998
2 48691  53.0535 274.8863 0001076 101.4449 258.6661 15.06392297125563
STARLINK-2752           
1 48692U 21044BG  23238.51966232  .00003186  00000+0  23273-3 0  9999
2 48692  53.0538 274.4815 0001254  89.8524 270.2608 15.06397154124748
STARLINK-2618           
1 48693U 21044BH  23238.52745498  .00000595  00000+0  58818-4 0  9995
2 48693  53.0528 279.3254 0001350  77.8913 282.2227 15.06392665124679
STARLINK-2748           
1 48694U 21044BJ  23238.36296651 -.00002460  00000+0 -14638-3 0  9996
2 48694  53.0538 285.0516 0001105 101.0212 259.0901 15.06384929124570
STARLINK-2616           
1 48695U 21044BK  23238.45237638 -.00001209  00000+0 -62308-4 0  9995
2 48695  53.0536 284.7080 0001169 100.4062 259.7059 15.06391768124599
STARLINK-2753           
1 48696U 21044BL  23238.37635333  .00000600  00000+0  59211-4 0  9992
2 48696  53.0544 290.0492 0001184  85.6787 274.4337 15.06389734124516
STARLINK-2715           
1 48697U 21044BM  23238.40583980  .00000246  00000+0  35406-4 0  9993
2 48697  53.0542 289.8768 0001183  92.7667 267.3457 15.06386410124514
STARLINK-3003           
1 48879U 21059A   23238.35697898 -.00000144  00000+0 -64238-5 0  9994
2 48879  97.6592   1.6732 0000588 174.7549 185.3682 15.02075354119829
STARLINK-3004           
1 48880U 21059B   23238.35528236  .00001639  00000+0  12938-3 0  9991
2 48880  97.6595   1.6538 0000725 248.8760 111.2387 15.02080378119821
STARLINK-3005           
1 48881U 21059C   23238.35107643  .00003497  00000+0  27087-3 0  9992
2 48881  97.6533   1.5984 0000597 190.5078 169.6134 15.02077544119828
STARLINK-3096           
1 49131U 21082B   23238.73184315 -.00002957  00000+0 -23999-3 0  9990
2 49131  70.0002  69.1188 0002979 264.2273  95.8546 14.98347695108265
STARLINK-3090           
1 49132U 21082C   23238.03133029  .00000069  00000+0  13606-4 0  9995
2 49132  69.9993 110.8923 0003204 270.8380  89.2412 14.98330334107177
STARLINK-3077           
1 49133U 21082D   23238.76151973 -.00000419  00000+0 -27358-4 0  9994
2 49133  69.9995 109.0538 0003000 271.1459  88.9357 14.98330026107281
STARLINK-3078           
1 49134U 21082E   23238.75734794 -.00000505  00000+0 -34516-4 0  9992
2 49134  69.9994 109.0671 0002928 272.7850  87.2974 14.98330581108485
STARLINK-3073           
1 49135U 21082F   23237.99331299  .00000609  00000+0  58833-4 0  9992
2 49135  69.9996  70.9706 0003049 270.2728  89.8081 14.98331520108161
STARLINK-3084           
1 49136U 21082G   23237.98937252  .00000451  00000+0  45575-4 0  9997
2 49136  69.9993  90.9938 0003131 268.6974  91.3826 14.98333481107672
STARLINK-3055           
1 49137U 21082H   23238.58604307 -.00000129  00000+0 -30370-5 0  9999
2 49137  69.9988  89.4936 0003167 272.1497  87.9299 14.98329391107756
STARLINK-3058           
1 49138U 21082J   23238.08556997  .00000763  00000+0  71751-4 0  9995
2 49138  69.9994 110.7655 0003078 270.8994  89.1812 14.98335003107187
STARLINK-3057           
1 49139U 21082K   23237.98496890  .00000266  00000+0  30068-4 0  9993
2 49139  69.9998  70.9986 0002952 271.2539  88.8282 14.98331386108151
STARLINK-3118           
1 49140U 21082L   23238.71098348 -.00000015  00000+0  65101-5 0  9993
2 49140  70.0006  69.1741 0003022 271.1669  88.9144 14.98343598108265
STARLINK-3093           
1 49141U 21082M   23238.08140096  .00000412  00000+0  42314-4 0  9992
2 49141  69.9992 110.7784 0003066 270.5918  89.4890 14.98332489108389
STARLINK-3042           
1 49142U 21082N   23237.97245431  .00000649  00000+0  62171-4 0  9994
2 49142  69.9995  71.0399 0002964 267.1631  92.9189 14.98333311108154
STARLINK-3109           
1 49143U 21082P   23238.58186806  .00000265  00000+0  30032-4 0  9998
2 49143  70.0001  89.5079 0002675 263.4952  96.5902 14.98331219108865
STARLINK-3100           
1 49144U 21082Q   23238.13981277  .00000816  00000+0  76153-4 0  9991
2 49144  70.0001 110.6114 0002818 269.2006  90.8830 14.98335271107199
STARLINK-3119           
1 49145U 21082R   23238.75688158  .00000085  00000+0  14954-4 0  9991
2 49145  69.9997  69.0499 0003120 275.6671  84.4132 14.98330548108265
STARLINK-3116           
1 49146U 21082S   23238.04361547  .00000888  00000+0  82244-4 0  9992
2 49146  69.9993  90.8665 0002951 268.5369  91.5451 14.98331644108828
STARLINK-3071           
1 49147U 21082T   23237.96827764  .00000512  00000+0  50669-4 0  9991
2 49147  69.9995  71.0546 0003030 267.3141  92.7671 14.98332367108150
STARLINK-3048           
1 49148U 21082U   23238.76963154  .00000089  00000+0  15293-4 0  9998
2 49148  69.9993  89.0155 0002929 268.5790  91.5034 14.98331133108906
STARLINK-3053           
1 49149U 21082V   23238.73648360 -.00000364  00000+0 -22677-4 0  9997
2 49149  69.9991 109.1086 0002924 273.3894  86.6930 14.98332757108482
STARLINK-3104           
1 49150U 21082W   23238.73230525  .00001187  00000+0  10730-3 0  9997
2 49150  69.9990 109.1232 0003092 270.7617  89.3188 14.98317165108488
STARLINK-3102           
1 49151U 21082X   23238.54825749 -.00000112  00000+0 -15606-5 0  9993
2 49151  69.9994  69.5827 0003103 269.7391  90.3412 14.98330492109438
STARLINK-3081           
1 49152U 21082Y   23237.98914085  .00000431  00000+0  43891-4 0  9991
2 49152  69.9996  70.9842 0003078 272.3244  87.7563 14.98333483109274
STARLINK-3072           
1 49153U 21082Z   23238.53991268  .00000042  00000+0  11341-4 0  9995
2 49153  69.9996  69.6100 0003080 267.2708  92.8099 14.98330659109440
STARLINK-3068           
1 49154U 21082AA  23238.76545918 -.00000051  00000+0  35002-5 0  9990
2 49154  69.9991  89.0292 0003126 270.8894  89.1907 14.98328824108853
STARLINK-3060           
1 49155U 21082AB  23238.73602168 -.00000036  00000+0  47845-5 0  9990
2 49155  69.9995  69.1191 0003124 267.4083  92.6718 14.98329241109343
STARLINK-3085           
1 49156U 21082AC  23237.98079566  .00000556  00000+0  54354-4 0  9995
2 49156  69.9993  71.0110 0003113 269.7898  90.2904 14.98335333109230
STARLINK-3051           
1 49157U 21082AD  23238.76128635  .00000136  00000+0  19225-4 0  9997
2 49157  69.9991  89.0429 0003054 272.7580  87.3229 14.98330694108878
STARLINK-3083           
1 49158U 21082AE  23238.00196580  .00009759  00000+0  78644-3 0  9998
2 49158  69.9980  90.3928 0004297 218.6258 141.4596 15.00153104108778
STARLINK-3056           
1 49159U 21082AF  23238.72813808 -.00000472  00000+0 -31781-4 0  9994
2 49159  69.9992 109.1377 0003023 269.9289  90.1523 14.98332704108375
STARLINK-3095           
1 49160U 21082AG  23238.04801551  .00000341  00000+0  36353-4 0  9996
2 49160  69.9995 110.8343 0002993 264.0516  96.0302 14.98334624108245
STARLINK-3080           
1 49161U 21082AH  23238.45275226  .00000243  00000+0  28133-4 0  9994
2 49161  69.9997 109.8110 0003118 268.5668  91.5134 14.98331087108316
STARLINK-3082           
1 49162U 21082AJ  23238.77820822  .00000216  00000+0  25929-4 0  9998
2 49162  69.9996 108.9979 0003087 268.6130  91.4675 14.98333310108454
STARLINK-3088           
1 49163U 21082AK  23238.75294205  .00000358  00000+0  37794-4 0  9997
2 49163  69.9987  89.0716 0003096 268.2594  91.8211 14.98331339108946
STARLINK-3106           
1 49164U 21082AL  23238.74459757 -.00000242  00000+0 -12528-4 0  9994
2 49164  69.9993  89.1000 0003043 273.1884  86.8927 14.98330481108945
STARLINK-3052           
1 49165U 21082AM  23238.10659821  .00001711  00000+0  15114-3 0  9992
2 49165  69.9993 110.6961 0003196 268.0163  92.0630 14.98331893108380
STARLINK-3089           
1 49166U 21082AN  23238.74876988 -.00000351  00000+0 -21627-4 0  9996
2 49166  69.9991  89.0855 0003016 271.6313  88.4501 14.98330271108978
STARLINK-3054           
1 49167U 21082AP  23238.03550223  .00000221  00000+0  26302-4 0  9999
2 49167  69.9995 110.8779 0003131 271.1018  88.9783 14.98331392108372
STARLINK-3101           
1 49168U 21082AQ  23238.39827919  .00000309  00000+0  33703-4 0  9998
2 49168  69.9993  89.9559 0003133 270.6031  89.4769 14.98331957108922
STARLINK-3046           
1 49169U 21082AR  23238.00606362  .00000144  00000+0  19902-4 0  9996
2 49169  69.9993  90.9663 0003086 270.5660  89.5145 14.98333212107660
STARLINK-3074           
1 49170U 21082AS  23238.61130939  .00000280  00000+0  31251-4 0  9999
2 49170  70.0000 109.4311 0002850 271.4668  88.6164 14.98331161107264
STARLINK-3107           
1 49171U 21082AT  23238.76232172 -.00065431  00000+0 -56072-2 0  9995
2 49171  69.9985 109.0409 0003516 272.0169  88.0587 14.97772348108440
STARLINK-3091           
1 49172U 21082AU  23238.77380393 -.00000095  00000+0 -13659-6 0  9999
2 49172  69.9992  89.0138 0002948 268.2001  91.8820 14.98330581107772
STARLINK-3045           
1 49173U 21082AV  23238.59438555  .00000265  00000+0  30005-4 0  9993
2 49173  70.0001  89.4662 0002793 263.6007  96.4834 14.98329842107758
STARLINK-3047           
1 49174U 21082AW  23238.02501078  .00004805  00000+0  40149-3 0  9996
2 49174  69.9987  90.6360 0002010 232.7327 127.3650 14.99163976108848
STARLINK-3087           
1 49175U 21082AX  23238.75712192 -.00001516  00000+0 -11928-3 0  9999
2 49175  69.9986  89.0685 0003488 267.3716  92.7044 14.98325563107770
STARLINK-3069           
1 49176U 21082AY  23238.54408470 -.00000164  00000+0 -59491-5 0  9995
2 49176  69.9997  69.5965 0003084 269.4284  90.6522 14.98331442108235
STARLINK-3103           
1 49177U 21082AZ  23238.76522763  .00000049  00000+0  11879-4 0  9999
2 49177  69.9999  69.0497 0002860 268.7901  91.2931 14.98331691109465
STARLINK-3086           
1 49178U 21082BA  23238.59044632  .00000617  00000+0  59521-4 0  9992
2 49178  69.9990 109.4726 0003131 271.5782  88.5018 14.98329241108419
